CTC2_L_00113001-01
1 10000U 24491DM  26075.70041667  .00000000  00000+0  00000-0 0  9991
2 10000  60.0000   0.0000 0000000   0.0000   0.0000 14.51731151    19
CTC2_L_00113001-02
1 10001U 22335WN  26075.70041667  .00000000  00000+0  00000-0 0  9997
2 10001  60.0000   0.0000 0000000   0.0000  90.0000 14.51731151    19
CTC2_L_00113001-03
1 10002U 22842PP  26075.70041667  .00000000  00000+0  00000-0 0  9991
2 10002  60.0000   0.0000 0000000   0.0000 180.0000 14.51731151    10
CTC2_L_00113001-04
1 10003U 26160SI  26075.70041667  .00000000  00000+0  00000-0 0  9999
2 10003  60.0000   0.0000 0000000   0.0000 270.0000 14.51731151    11
CTC2_L_00113002-01
1 10004U 22833PA  26075.70041667  .00000000  00000+0  00000-0 0  9993
2 10004  60.0000  12.0000 0000000   0.0000  12.0000 14.51731151    19
CTC2_L_00113002-02
1 10005U 26396NS  26075.70041667  .00000000  00000+0  00000-0 0  9992
2 10005  60.0000  12.0000 0000000   0.0000 102.0000 14.51731151    10
CTC2_L_00113002-03
1 10006U 25146BB  26075.70041667  .00000000  00000+0  00000-0 0  9995
2 10006  60.0000  12.0000 0000000   0.0000 192.0000 14.51731151    10
CTC2_L_00113002-04
1 10007U 24225ZO  26075.70041667  .00000000  00000+0  00000-0 0  9993
2 10007  60.0000  12.0000 0000000   0.0000 282.0000 14.51731151    11
CTC2_L_00113003-01
1 10008U 26142ZX  26075.70041667  .00000000  00000+0  00000-0 0  9994
2 10008  60.0000  24.0000 0000000   0.0000  24.0000 14.51731151    19
CTC2_L_00113003-02
1 10009U 24236HK  26075.70041667  .00000000  00000+0  00000-0 0  9997
2 10009  60.0000  24.0000 0000000   0.0000 114.0000 14.51731151    10
CTC2_L_00113003-03
1 10010U 26117ES  26075.70041667  .00000000  00000+0  00000-0 0  9999
2 10010  60.0000  24.0000 0000000   0.0000 204.0000 14.51731151    12
CTC2_L_00113003-04
1 10011U 22271GL  26075.70041667  .00000000  00000+0  00000-0 0  9997
2 10011  60.0000  24.0000 0000000   0.0000 294.0000 14.51731151    12
CTC2_L_00113004-01
1 10012U 26956OS  26075.70041667  .00000000  00000+0  00000-0 0  9992
2 10012  60.0000  36.0000 0000000   0.0000  36.0000 14.51731151    10
CTC2_L_00113004-02
1 10013U 24724AN  26075.70041667  .00000000  00000+0  00000-0 0  9994
2 10013  60.0000  36.0000 0000000   0.0000 126.0000 14.51731151    11
CTC2_L_00113004-03
1 10014U 24062KG  26075.70041667  .00000000  00000+0  00000-0 0  9990
2 10014  60.0000  36.0000 0000000   0.0000 216.0000 14.51731151    12
CTC2_L_00113004-04
1 10015U 26128XK  26075.70041667  .00000000  00000+0  00000-0 0  9996
2 10015  60.0000  36.0000 0000000   0.0000 306.0000 14.51731151    13
CTC2_L_00113005-01
1 10016U 25828ZL  26075.70041667  .00000000  00000+0  00000-0 0  9993
2 10016  60.0000  48.0000 0000000   0.0000  48.0000 14.51731151    10
CTC2_L_00113005-02
1 10017U 26687IB  26075.70041667  .00000000  00000+0  00000-0 0  9998
2 10017  60.0000  48.0000 0000000   0.0000 138.0000 14.51731151    11
CTC2_L_00113005-03
1 10018U 24387ME  26075.70041667  .00000000  00000+0  00000-0 0  9994
2 10018  60.0000  48.0000 0000000   0.0000 228.0000 14.51731151    12
CTC2_L_00113005-04
1 10019U 23005H   26075.70041667  .00000000  00000+0  00000-0 0  9991
2 10019  60.0000  48.0000 0000000   0.0000 318.0000 14.51731151    13
CTC2_L_00113006-01
1 10020U 23618FZ  26075.70041667  .00000000  00000+0  00000-0 0  9993
2 10020  60.0000  60.0000 0000000   0.0000  60.0000 14.51731151    13
CTC2_L_00113006-02
1 10021U 24039GF  26075.70041667  .00000000  00000+0  00000-0 0  9992
2 10021  60.0000  60.0000 0000000   0.0000 150.0000 14.51731151    14
CTC2_L_00113006-03
1 10022U 25656XP  26075.70041667  .00000000  00000+0  00000-0 0  9999
2 10022  60.0000  60.0000 0000000   0.0000 240.0000 14.51731151    15
CTC2_L_00113006-04
1 10023U 23516XT  26075.70041667  .00000000  00000+0  00000-0 0  9993
2 10023  60.0000  60.0000 0000000   0.0000 330.0000 14.51731151    16
CTC2_L_00113007-01
1 10024U 26273VW  26075.70041667  .00000000  00000+0  00000-0 0  9997
2 10024  60.0000  72.0000 0000000   0.0000  72.0000 14.51731151    13
CTC2_L_00113007-02
1 10025U 25416XC  26075.70041667  .00000000  00000+0  00000-0 0  9996
2 10025  60.0000  72.0000 0000000   0.0000 162.0000 14.51731151    14
CTC2_L_00113007-03
1 10026U 25269NH  26075.70041667  .00000000  00000+0  00000-0 0  9993
2 10026  60.0000  72.0000 0000000   0.0000 252.0000 14.51731151    15
CTC2_L_00113007-04
1 10027U 22846RL  26075.70041667  .00000000  00000+0  00000-0 0  9992
2 10027  60.0000  72.0000 0000000   0.0000 342.0000 14.51731151    16
CTC2_L_00113008-01
1 10028U 25868AV  26075.70041667  .00000000  00000+0  00000-0 0  9990
2 10028  60.0000  84.0000 0000000   0.0000  84.0000 14.51731151    13
CTC2_L_00113008-02
1 10029U 26966OE  26075.70041667  .00000000  00000+0  00000-0 0  9991
2 10029  60.0000  84.0000 0000000   0.0000 174.0000 14.51731151    14
CTC2_L_00113008-03
1 10030U 26338MX  26075.70041667  .00000000  00000+0  00000-0 0  9996
2 10030  60.0000  84.0000 0000000   0.0000 264.0000 14.51731151    16
CTC2_L_00113008-04
1 10031U 24388VK  26075.70041667  .00000000  00000+0  00000-0 0  9990
2 10031  60.0000  84.0000 0000000   0.0000 354.0000 14.51731151    17
CTC2_L_00113009-01
1 10032U 26860BB  26075.70041667  .00000000  00000+0  00000-0 0  9998
2 10032  60.0000  96.0000 0000000   0.0000  96.0000 14.51731151    14
CTC2_L_00113009-02
1 10033U 23110MD  26075.70041667  .00000000  00000+0  00000-0 0  9994
2 10033  60.0000  96.0000 0000000   0.0000 186.0000 14.51731151    15
CTC2_L_00113009-03
1 10034U 22852NF  26075.70041667  .00000000  00000+0  00000-0 0  9997
2 10034  60.0000  96.0000 0000000   0.0000 276.0000 14.51731151    16
CTC2_L_00113009-04
1 10035U 26300CI  26075.70041667  .00000000  00000+0  00000-0 0  9990
2 10035  60.0000  96.0000 0000000   0.0000   6.0000 14.51731151    18
CTC2_L_00113010-01
1 10036U 24275YZ  26075.70041667  .00000000  00000+0  00000-0 0  9990
2 10036  60.0000 108.0000 0000000   0.0000 108.0000 14.51731151    16
CTC2_L_00113010-02
1 10037U 23056DN  26075.70041667  .00000000  00000+0  00000-0 0  9997
2 10037  60.0000 108.0000 0000000   0.0000 198.0000 14.51731151    16
CTC2_L_00113010-03
1 10038U 24377RN  26075.70041667  .00000000  00000+0  00000-0 0  9995
2 10038  60.0000 108.0000 0000000   0.0000 288.0000 14.51731151    17
CTC2_L_00113010-04
1 10039U 24327FB  26075.70041667  .00000000  00000+0  00000-0 0  9991
2 10039  60.0000 108.0000 0000000   0.0000  18.0000 14.51731151    19
CTC2_L_00113011-01
1 10040U 23308PX  26075.70041667  .00000000  00000+0  00000-0 0  9991
2 10040  60.0000 120.0000 0000000   0.0000 120.0000 14.51731151    19
CTC2_L_00113011-02
1 10041U 25786ZX  26075.70041667  .00000000  00000+0  00000-0 0  9994
2 10041  60.0000 120.0000 0000000   0.0000 210.0000 14.51731151    10
CTC2_L_00113011-03
1 10042U 26548YB  26075.70041667  .00000000  00000+0  00000-0 0  9992
2 10042  60.0000 120.0000 0000000   0.0000 300.0000 14.51731151    11
CTC2_L_00113011-04
1 10043U 24441PN  26075.70041667  .00000000  00000+0  00000-0 0  9993
2 10043  60.0000 120.0000 0000000   0.0000  30.0000 14.51731151    12
CTC2_L_00113012-01
1 10044U 22440SM  26075.70041667  .00000000  00000+0  00000-0 0  9991
2 10044  60.0000 132.0000 0000000   0.0000 132.0000 14.51731151    19
CTC2_L_00113012-02
1 10045U 23323JD  26075.70041667  .00000000  00000+0  00000-0 0  9993
2 10045  60.0000 132.0000 0000000   0.0000 222.0000 14.51731151    10
CTC2_L_00113012-03
1 10046U 26423YX  26075.70041667  .00000000  00000+0  00000-0 0  9998
2 10046  60.0000 132.0000 0000000   0.0000 312.0000 14.51731151    11
CTC2_L_00113012-04
1 10047U 22218FD  26075.70041667  .00000000  00000+0  00000-0 0  9997
2 10047  60.0000 132.0000 0000000   0.0000  42.0000 14.51731151    12
CTC2_L_00113013-01
1 10048U 25519QC  26075.70041667  .00000000  00000+0  00000-0 0  9995
2 10048  60.0000 144.0000 0000000   0.0000 144.0000 14.51731151    19
CTC2_L_00113013-02
1 10049U 25214SQ  26075.70041667  .00000000  00000+0  00000-0 0  9998
2 10049  60.0000 144.0000 0000000   0.0000 234.0000 14.51731151    10
CTC2_L_00113013-03
1 10050U 22643QQ  26075.70041667  .00000000  00000+0  00000-0 0  9993
2 10050  60.0000 144.0000 0000000   0.0000 324.0000 14.51731151    12
CTC2_L_00113013-04
1 10051U 22758SF  26075.70041667  .00000000  00000+0  00000-0 0  9991
2 10051  60.0000 144.0000 0000000   0.0000  54.0000 14.51731151    13
CTC2_L_00113014-01
1 10052U 24202IF  26075.70041667  .00000000  00000+0  00000-0 0  9998
2 10052  60.0000 156.0000 0000000   0.0000 156.0000 14.51731151    10
CTC2_L_00113014-02
1 10053U 22500IM  26075.70041667  .00000000  00000+0  00000-0 0  9998
2 10053  60.0000 156.0000 0000000   0.0000 246.0000 14.51731151    11
CTC2_L_00113014-03
1 10054U 23747IN  26075.70041667  .00000000  00000+0  00000-0 0  9993
2 10054  60.0000 156.0000 0000000   0.0000 336.0000 14.51731151    12
CTC2_L_00113014-04
1 10055U 25502YG  26075.70041667  .00000000  00000+0  00000-0 0  9995
2 10055  60.0000 156.0000 0000000   0.0000  66.0000 14.51731151    13
CTC2_L_00113015-01
1 10056U 25282XV  26075.70041667  .00000000  00000+0  00000-0 0  9991
2 10056  60.0000 168.0000 0000000   0.0000 168.0000 14.51731151    10
CTC2_L_00113015-02
1 10057U 26862LN  26075.70041667  .00000000  00000+0  00000-0 0  9997
2 10057  60.0000 168.0000 0000000   0.0000 258.0000 14.51731151    11
CTC2_L_00113015-03
1 10058U 26273H   26075.70041667  .00000000  00000+0  00000-0 0  9994
2 10058  60.0000 168.0000 0000000   0.0000 348.0000 14.51731151    12
CTC2_L_00113015-04
1 10059U 26652YO  26075.70041667  .00000000  00000+0  00000-0 0  9996
2 10059  60.0000 168.0000 0000000   0.0000  78.0000 14.51731151    13
CTC2_L_00113016-01
1 10060U 23025NQ  26075.70041667  .00000000  00000+0  00000-0 0  9999
2 10060  60.0000 180.0000 0000000   0.0000 180.0000 14.51731151    13
CTC2_L_00113016-02
1 10061U 24412LB  26075.70041667  .00000000  00000+0  00000-0 0  9991
2 10061  60.0000 180.0000 0000000   0.0000 270.0000 14.51731151    14
